OBJECT_NAME,OBJECT_ID,EPOCH,MEAN_MOTION,ECCENTRICITY,INCLINATION,RA_OF_ASC_NODE,ARG_OF_PERICENTER,MEAN_ANOMALY,EPHEMERIS_TYPE,CLASSIFICATION_TYPE,NORAD_CAT_ID,ELEMENT_SET_NO,REV_AT_EPOCH,BSTAR,MEAN_MOTION_DOT,MEAN_MOTION_DDOT
STARLINK-5440,2022-175AD,2026-06-15T00:05:33.833184,15.08825819,.0001057,53.1600,272.0456,82.3136,277.7976,0,U,54785,999,19538,-.27813E-4,-.73E-5,0
STARLINK-5441,2022-175AF,2026-06-15T03:11:39.664608,15.08832882,.0001046,53.1602,326.3125,90.7312,269.3799,0,U,54787,999,19463,-.15971E-4,-.542E-5,0
STARLINK-5399,2022-175AG,2026-06-15T03:26:55.070016,15.08834711,.0001142,53.1615,311.4148,90.4405,269.6717,0,U,54788,999,19484,.33744E-4,.249E-5,0
STARLINK-5446,2022-175AH,2026-06-14T14:43:09.460416,15.08833245,.00012425,53.1606,298.6979,86.2151,273.8982,0,U,54789,999,19497,.79502787E-4,.977E-5,0
STARLINK-5445,2022-175AJ,2026-06-15T03:16:18.479136,15.08831143,.0001214,53.1600,311.3692,86.8787,273.2344,0,U,54790,999,19484,.43608E-4,.406E-5,0
STARLINK-5425,2022-175AK,2026-06-14T16:29:49.909344,15.08834136,.00013224,53.1618,313.5435,91.1767,268.9376,0,U,54791,999,19477,-.2664362E-5,-.33E-5,0
STARLINK-5431,2022-175AL,2026-06-14T17:28:43.683168,15.08836475,.00012854,53.1614,328.0544,88.3768,271.7371,0,U,54792,999,19457,.43265708E-4,.401E-5,0
STARLINK-5433,2022-175AM,2026-06-15T02:03:29.051424,15.08832470,.0001171,53.1600,301.8190,82.2341,277.8783,0,U,54793,999,19497,.64108E-4,.732E-5,0
STARLINK-5436,2022-175AP,2026-06-15T04:00:01.998720,15.14823109,.0002,53.1595,311.1749,94.5178,98.0658,0,U,54795,999,573,.23114E-2,.43407E-3,0
STARLINK-5415,2022-175AQ,2026-06-15T03:11:00.070080,15.08834297,.0001032,53.1616,311.3461,79.2790,280.8317,0,U,54796,999,19484,.77995E-5,-.164E-5,0
STARLINK-5435,2022-175AR,2026-06-15T03:28:57.423648,15.08831696,.0001139,53.1603,326.3865,94.4434,265.6687,0,U,54797,999,19463,.54365E-4,.577E-5,0
STARLINK-5420,2022-175AS,2026-06-14T15:59:19.792320,15.08831542,.00012853,53.1618,303.4567,94.0781,266.0357,0,U,54798,999,19491,.7992834E-5,-.161E-5,0
STARLINK-5421,2022-175AT,2026-06-14T16:25:51.626784,15.08833064,.00010722,53.1606,303.5738,79.7561,280.3551,0,U,54799,999,19491,.67426143E-4,.785E-5,0
STARLINK-5428,2022-175AU,2026-06-15T03:18:17.935776,15.08830638,.0001401,53.1612,316.3459,81.5102,278.6048,0,U,54800,999,19477,.45982E-4,.444E-5,0
STARLINK-5429,2022-175AV,2026-06-14T17:18:06.652512,15.08839836,.00012424,53.1605,328.0075,87.2612,272.8522,0,U,54801,999,19457,.43397938E-4,.403E-5,0
STARLINK-5426,2022-175AW,2026-06-15T04:00:01.998720,15.07996607,.0001176,53.2078,271.1198,89.0714,163.9260,0,U,54802,999,578,.29943E-2,.46593E-3,0
STARLINK-5430,2022-175AX,2026-06-14T17:34:01.564320,15.08839136,.00012172,53.1616,328.0614,92.4982,267.6149,0,U,54803,999,19457,.62694235E-4,.71E-5,0
STARLINK-5422,2022-175AY,2026-06-15T04:00:01.998720,15.14125243,.0000919,53.1599,310.8843,102.8228,239.9476,0,U,54804,999,573,.24661E-2,.45438E-3,0
STARLINK-5417,2022-175AZ,2026-06-15T03:24:50.781024,15.08022382,.0001222,53.2115,311.4825,89.7380,270.3751,0,U,54805,999,19484,.27774E-4,.147E-5,0
STARLINK-5412,2022-175BA,2026-06-15T04:00:01.998720,15.14941538,.0000977,53.1597,310.9194,92.7062,230.7128,0,U,54806,999,578,.24387E-2,.45985E-3,0
STARLINK-5410,2022-175BB,2026-06-15T02:55:05.330208,15.08830375,.0001175,53.1602,311.2774,86.7929,273.3197,0,U,54807,999,19484,.28099E-4,.159E-5,0
STARLINK-5413,2022-175BC,2026-06-15T02:17:25.652256,15.08826756,.0001341,53.1610,296.9344,87.4246,272.6899,0,U,54808,999,19504,.5368E-4,.566E-5,0
STARLINK-5414,2022-175BD,2026-06-15T04:00:01.998720,15.15122868,.0001506,53.1600,310.8717,97.7640,249.9633,0,U,54809,999,573,.2172E-2,.41106E-3,0
STARLINK-5408,2022-175BE,2026-06-14T16:06:35.441856,15.08850379,.00011656,53.1622,308.4405,89.8122,270.3003,0,U,54810,999,19484,.14118817E-3,.196E-4,0
STARLINK-5424,2022-175BF,2026-06-15T02:17:27.216096,15.08831299,.0001274,53.1613,306.8093,95.3005,264.8132,0,U,54811,999,19490,.42429E-4,.387E-5,0
STARLINK-5382,2022-177A,2026-06-15T02:24:36.154944,15.27577789,.0001172,43.0035,305.7277,276.6422,83.4296,0,U,54820,999,19182,-.14314E-5,-.301E-5,0
STARLINK-5385,2022-177B,2026-06-15T02:41:14.157024,15.27581943,.0002528,43.0138,305.8102,273.1414,86.9149,0,U,54821,999,19182,.2784E-4,.503E-5,0
STARLINK-5101,2022-177C,2026-06-14T16:02:28.883904,15.27588812,.00011049,43.0008,308.4906,249.2213,110.8521,0,U,54822,999,19175,.56402235E-4,.1291E-4,0
STARLINK-5106,2022-177D,2026-06-15T02:30:08.887392,15.27575217,.0000901,43.0003,305.7507,280.0653,80.0097,0,U,54823,999,19182,-.25184E-5,-.331E-5,0
STARLINK-4643,2022-177E,2026-06-15T02:35:41.530848,15.27576727,.0001856,43.0092,305.7780,277.8352,82.2289,0,U,54824,999,19182,.17197E-5,-.215E-5,0
STARLINK-5107,2022-177G,2026-06-14T15:56:57.123456,15.27576498,.00015109,43.0029,308.4579,260.3118,99.7563,0,U,54826,999,19175,.20727016E-4,.308E-5,0
STARLINK-5383,2022-177H,2026-06-14T16:08:03.918048,15.27575516,.00016631,43.0055,308.5213,278.1422,81.9241,0,U,54827,999,19175,.3672621E-5,-.161E-5,0
STARLINK-5381,2022-177J,2026-06-14T16:13:36.879456,15.27574723,.00016378,43.0056,308.5492,273.8241,86.2424,0,U,54828,999,19175,.10221088E-4,.19E-6,0
STARLINK-5394,2022-177L,2026-06-14T16:28:24.601440,15.27583497,.00011166,43.0063,308.6185,274.1752,85.8972,0,U,54830,999,19175,-.68310512E-4,-.2142E-4,0
STARLINK-5395,2022-177M,2026-06-15T02:46:47.687808,15.27578760,.0001668,43.0060,305.8305,278.0099,82.0564,0,U,54831,999,19182,.14194E-4,.128E-5,0
STARLINK-5386,2022-177Q,2026-06-14T16:33:57.405600,15.27558188,.00006421,42.9973,308.6505,149.0735,211.0154,0,U,54834,999,19176,.86196273E-4,.2109E-4,0
STARLINK-5389,2022-177R,2026-06-14T16:19:09.686208,15.27576207,.00014952,43.0066,308.5807,265.0577,95.0104,0,U,54835,999,19175,.6532037E-5,-.83E-6,0
STARLINK-5372,2022-177U,2026-06-15T01:37:27.061248,15.27505661,.0000512,42.9984,302.9186,240.1376,119.9425,0,U,54838,999,19185,.523E-3,.14125E-3,0
STARLINK-5368,2022-177W,2026-06-14T16:03:14.199840,15.27573873,.00004256,43.0067,305.0866,157.3326,202.7545,0,U,54840,999,19179,.12326107E-4,.77E-6,0
STARLINK-4659,2022-177X,2026-06-15T01:42:57.581856,15.27574782,.0001307,43.0026,302.9508,263.8703,96.2000,0,U,54841,999,19185,-.173E-4,-.738E-5,0
STARLINK-5387,2022-177Y,2026-06-14T15:52:08.378976,15.27564343,.00013773,43.0025,305.0224,270.1150,89.9544,0,U,54842,999,19179,-.35255682E-4,-.1232E-4,0
STARLINK-5304,2022-177Z,2026-06-15T01:46:40.238112,15.27578186,.0001182,43.0035,302.9654,282.1374,77.9345,0,U,54843,999,19185,.68437E-4,.1621E-4,0
STARLINK-5388,2022-177AA,2026-06-15T02:15:20.265984,15.27576385,.0001424,43.0031,305.6445,269.0797,90.9891,0,U,54844,999,19182,-.10759E-4,-.558E-5,0
STARLINK-5082,2022-177AB,2026-06-14T15:57:39.982176,15.27575947,.00015863,43.0002,305.0563,272.8752,87.1918,0,U,54845,999,19179,.170896E-5,-.215E-5,0
STARLINK-5360,2022-177AC,2026-06-14T15:48:24.928704,15.27574805,.0001592,43.0051,305.0054,264.8857,95.1813,0,U,54846,999,19179,-.706471E-6,-.282E-5,0
STARLINK-5061,2022-177AD,2026-06-15T00:08:49.822080,15.27573661,.0001266,42.9996,280.6964,266.7934,93.2773,0,U,54847,999,19210,.64867E-5,-.84E-6,0
STARLINK-5432,2022-177AE,2026-06-15T01:50:22.615296,15.27574215,.0001782,43.0031,291.6895,277.7452,82.3197,0,U,54848,999,19198,-.13001E-4,-.62E-5,0
STARLINK-5087,2022-177AG,2026-06-15T01:15:13.377888,15.27575164,.0000756,43.0034,291.5006,286.8257,73.2512,0,U,54850,999,19198,-.30869E-4,-.1111E-4,0
STARLINK-5084,2022-177AH,2026-06-15T01:09:40.025088,15.27575185,.0001199,43.0030,291.4731,279.4623,80.6093,0,U,54851,999,19198,-.87485E-5,-.503E-5,0
STARLINK-5418,2022-177AJ,2026-06-15T01:00:24.932736,15.27571715,.0001421,43.0028,291.4272,266.7246,93.3443,0,U,54852,999,19198,.45841E-4,.999E-5,0
STARLINK-5427,2022-177AK,2026-06-15T01:18:55.494144,15.27583311,.0001215,43.0030,291.5240,273.7304,86.3409,0,U,54853,999,19198,.66335E-4,.1564E-4,0
STARLINK-5416,2022-177AM,2026-06-15T01:11:30.966144,15.27575350,.000121,43.0017,291.4838,272.0534,88.0179,0,U,54855,999,19198,.40527E-5,-.151E-5,0
STARLINK-5086,2022-177AN,2026-06-14T08:42:03.173472,15.27575667,.00020357,43.0032,295.7762,260.1055,99.9567,0,U,54856,999,19187,.7963736E-5,-.43E-6,0
STARLINK-5078,2022-177AP,2026-06-15T01:31:52.387392,15.27574802,.0001482,43.0083,291.5896,276.1072,83.9610,0,U,54857,999,19198,.19218E-4,.266E-5,0
STARLINK-5407,2022-177AQ,2026-06-14T15:55:50.033856,15.27573648,.00012425,42.9983,293.7448,263.8514,96.2196,0,U,54858,999,19192,.31450693E-4,.603E-5,0
STARLINK-5409,2022-177AR,2026-06-15T01:52:13.615968,15.27577070,.0001838,42.9998,291.6879,258.9532,101.1112,0,U,54859,999,19198,-.59373E-5,-.426E-5,0
STARLINK-5406,2022-177AS,2026-06-14T15:04:13.980576,15.27577329,.0001668,43.0008,294.3279,270.3091,89.7570,0,U,54860,999,19191,.11949E-4,.67E-6,0
STARLINK-5400,2022-177AT,2026-06-15T01:06:00.697824,15.27544132,.0000851,43.0014,291.4565,283.1543,76.9214,0,U,54861,999,19198,-.12833E-3,-.3787E-4,0
STARLINK-5403,2022-177AU,2026-06-15T01:35:34.643616,15.27574470,.0001135,43.0010,291.6260,288.6490,71.4239,0,U,54862,999,19198,-.21101E-5,-.32E-5,0
STARLINK-5405,2022-177AV,2026-06-15T01:42:58.605696,15.27575647,.0001578,43.0033,291.6443,285.3630,74.7048,0,U,54863,999,19198,.5391E-6,-.247E-5,0
STARLINK-5359,2022-177AW,2026-06-13T15:42:59.687136,15.27571914,.00022947,43.0047,299.9210,275.5772,84.4818,0,U,54864,999,19176,-.22289E-5,-.324E-5,0
STARLINK-5411,2022-177AX,2026-06-15T01:37:28.232832,15.27552216,.0000213,42.9965,291.6155,358.6034,1.4817,0,U,54865,999,19198,-.98751E-4,-.2975E-4,0
STARLINK-5398,2022-177AY,2026-06-15T00:56:42.952128,15.27574786,.0001283,43.0021,291.3994,270.6470,89.4235,0,U,54866,999,19198,-.12383E-5,-.296E-5,0
STARLINK-5396,2022-177AZ,2026-06-14T15:09:46.854720,15.27575508,.0001363,43.0003,294.3542,253.6469,106.4233,0,U,54867,999,19191,.72929E-5,-.61E-6,0
STARLINK-5379,2022-177BA,2026-06-15T01:07:48.961344,15.27574598,.0001374,43.0011,291.4515,274.8513,85.2181,0,U,54868,999,19198,-.11694E-5,-.294E-5,0
